ONEWEB-0674             
1 55833U 23029AP  24243.42587151 -.00000011  00000+0 -63570-4 0  9996
2 55833  87.8925  60.1515 0001414  69.1162 291.0119 13.14504033 73263
ONEWEB-0675             
1 55834U 23029AQ  24243.24035399  .00000081  00000+0  17047-3 0  9991
2 55834  87.9096  75.4697 0002073  95.7746 264.3623 13.19723301 72403
ONEWEB-0720             
1 55835U 23029AR  24243.23244740  .00000092  00000+0  19814-3 0  9999
2 55835  87.9094  75.4710 0001354 100.8800 259.2485 13.19726614 72328
ONEWEB-0537             
1 56046U 23043A   24243.56883088  .00000054  00000+0  10854-3 0  9993
2 56046  87.9165 359.3117 0002161 100.5360 259.6015 13.16595008 72693
ONEWEB-0538             
1 56047U 23043B   24243.56248419  .00000060  00000+0  12215-3 0  9997
2 56047  87.9167 359.3331 0001983 109.2207 250.9139 13.16596322 72704
ONEWEB-0546             
1 56048U 23043C   24243.85381871  .00000038  00000+0  64615-4 0  9997
2 56048  87.9169 359.2404 0002622  90.7288 269.4144 13.16591756 73642
ONEWEB-0547             
1 56049U 23043D   24243.64284631  .00000130  00000+0  28240-3 0  9997
2 56049  87.9338  14.4931 0001962 105.2848 254.8503 13.21823864 71623
ONEWEB-0548             
1 56050U 23043E   24243.57514650  .00000070  00000+0  15079-3 0  9997
2 56050  87.9167 359.3382 0001446  84.7848 275.3448 13.16594529 73607
